SL-8 R/B                
1 19257U 88053B   26111.82999964  .00000141  00000+0  54243-4 0  9992
2 19257  74.0493  32.9425 0020757 205.5380 210.4207 14.38940085982807
COSMOS 1975             
1 19573U 88093A   26111.87059530  .00004471  00000+0  15923-3 0  9999
2 19573  82.5187  74.3081 0012215  28.4400 331.7503 15.28600770 26006
SL-14 R/B               
1 19574U 88093B   26111.45100118  .00000294  00000+0  30991-4 0  9995
2 19574  82.5337   1.9131 0019120 255.7840 277.3817 14.85700551  7362
SL-16 R/B               
1 19650U 88102B   26111.85083336 -.00000233  00000+0 -93634-4 0  9995
2 19650  70.9997  60.6773 0016228 300.0935  59.8579 14.16158144933005
INTERCOSMOS 24          
1 20261U 89080A   26111.85663242  .00000139  00000+0  36259-4 0  9994
2 20261  82.6032  76.2892 1187431 192.5697 164.3211 12.59599394672236
SL-14 R/B               
1 20262U 89080C   26111.36340477  .00000245  00000+0  63755-4 0  9992
2 20262  82.5917 145.8016 1230983  87.2610 286.8399 12.50526744665481
DELTA 1 R/B             
1 20323U 89089B   26111.79895740  .00000149  00000+0  45695-4 0  9990
2 20323  97.0668 312.3694 0068667 347.6225  12.3284 14.50694797901987
ARIANE 40 R/B           
1 20443U 90005H   26111.75859816  .00000138  00000+0  57138-4 0  9996
2 20443  98.3004 171.1182 0011340  77.9972 282.2487 14.39896764899006
DELTA 2 R/B(1)          
1 20453U 90008B   26111.79557735  .00060799  00000+0  59086-3 0  9991
2 20453  35.6020 250.7224 0075331 303.4232  55.9318 15.61511881932866
COSMOS 2058             
1 20465U 90010A   26111.74459285  .00002120  00000+0  12281-3 0  9993
2 20465  82.4702   5.0093 0009323 175.4952 184.6364 15.11678349948748
SL-14 R/B               
1 20466U 90010B   26111.58241287  .00000326  00000+0  36456-4 0  9994
2 20466  82.5036 227.0950 0020484 154.7348 205.4873 14.83608615934848
SL-14 R/B               
1 20511U 90018B   26111.64132752  .00000242  00000+0  27442-4 0  9998
2 20511  82.5238 182.9571 0015054 314.1761  45.8215 14.82182226928943
HST                     
1 20580U 90037B   26111.67192148  .00004674  00000+0  14830-3 0  9992
2 20580  28.4735 106.6370 0001791 231.5115 128.5320 15.30101160779906
SL-16 R/B               
1 20625U 90046B   26111.74843472 -.00000096  00000+0 -24759-4 0  9991
2 20625  70.9993 207.4790 0016235 242.8232 117.1236 14.15014921854481
COSMOS 2084             
1 20663U 90055A   26111.55570612  .00001382  00000+0  10843-3 0  9990
2 20663  62.7891 189.3462 0010299 207.4485 152.6073 15.05885836942778
SL-6 R/B(2)             
1 20666U 90055D   26111.86364102  .00001472  00000+0  12022-3 0  9993
2 20666  62.7804 107.0065 0031798 356.1534   3.9316 15.03779170944686
SL-8 R/B                
1 20775U 90078B   26111.76547674  .00015594  00000+0  45815-3 0  9991
2 20775  82.9056 212.5352 0356466 228.4703 128.5436 14.90229119815718
