[{"OBJECT_NAME":"SL-8 R/B","OBJECT_ID":"1988-053B","EPOCH":"2026-04-21T19:55:11.968896","MEAN_MOTION":14.38940085,"ECCENTRICITY":0.0020757,"INCLINATION":74.0493,"RA_OF_ASC_NODE":32.9425,"ARG_OF_PERICENTER":205.538,"MEAN_ANOMALY":210.4207,"EPHEMERIS_TYPE":0,"CLASSIFICATION_TYPE":"U","NORAD_CAT_ID":19257,"ELEMENT_SET_NO":999,"REV_AT_EPOCH":98280,"BSTAR":5.4243e-5,"MEAN_MOTION_DOT":1.41e-6,"MEAN_MOTION_DDOT":0},{"OBJECT_NAME":"COSMOS 1975","OBJECT_ID":"1988-093A","EPOCH":"2026-04-21T20:53:39.433920","MEAN_MOTION":15.2860077,"ECCENTRICITY":0.0012215,"INCLINATION":82.5187,"RA_OF_ASC_NODE":74.3081,"ARG_OF_PERICENTER":28.44,"MEAN_ANOMALY":331.7503,"EPHEMERIS_TYPE":0,"CLASSIFICATION_TYPE":"U","NORAD_CAT_ID":19573,"ELEMENT_SET_NO":999,"REV_AT_EPOCH":2600,"BSTAR":0.00015923,"MEAN_MOTION_DOT":4.471e-5,"MEAN_MOTION_DDOT":0},{"OBJECT_NAME":"SL-14 R/B","OBJECT_ID":"1988-093B","EPOCH":"2026-04-21T10:49:26.501952","MEAN_MOTION":14.85700551,"ECCENTRICITY":0.00191203,"INCLINATION":82.5337,"RA_OF_ASC_NODE":1.9131,"ARG_OF_PERICENTER":255.784,"MEAN_ANOMALY":277.3817,"EPHEMERIS_TYPE":0,"CLASSIFICATION_TYPE":"U","NORAD_CAT_ID":19574,"ELEMENT_SET_NO":999,"REV_AT_EPOCH":736,"BSTAR":3.0990859e-5,"MEAN_MOTION_DOT":2.94e-6,"MEAN_MOTION_DDOT":0},{"OBJECT_NAME":"SL-16 R/B","OBJECT_ID":"1988-102B","EPOCH":"2026-04-21T20:25:12.002304","MEAN_MOTION":14.16158144,"ECCENTRICITY":0.0016228,"INCLINATION":70.9997,"RA_OF_ASC_NODE":60.6773,"ARG_OF_PERICENTER":300.0935,"MEAN_ANOMALY":59.8579,"EPHEMERIS_TYPE":0,"CLASSIFICATION_TYPE":"U","NORAD_CAT_ID":19650,"ELEMENT_SET_NO":999,"REV_AT_EPOCH":93300,"BSTAR":-9.3634e-5,"MEAN_MOTION_DOT":-2.33e-6,"MEAN_MOTION_DDOT":0},{"OBJECT_NAME":"INTERCOSMOS 24","OBJECT_ID":"1989-080A","EPOCH":"2026-04-21T20:33:33.041088","MEAN_MOTION":12.59599394,"ECCENTRICITY":0.1187431,"INCLINATION":82.6032,"RA_OF_ASC_NODE":76.2892,"ARG_OF_PERICENTER":192.5697,"MEAN_ANOMALY":164.3211,"EPHEMERIS_TYPE":0,"CLASSIFICATION_TYPE":"U","NORAD_CAT_ID":20261,"ELEMENT_SET_NO":999,"REV_AT_EPOCH":67223,"BSTAR":3.6259e-5,"MEAN_MOTION_DOT":1.39e-6,"MEAN_MOTION_DDOT":0},{"OBJECT_NAME":"SL-14 R/B","OBJECT_ID":"1989-080C","EPOCH":"2026-04-21T08:43:18.172128","MEAN_MOTION":12.50526744,"ECCENTRICITY":0.12309833,"INCLINATION":82.5917,"RA_OF_ASC_NODE":145.8016,"ARG_OF_PERICENTER":87.261,"MEAN_ANOMALY":286.8399,"EPHEMERIS_TYPE":0,"CLASSIFICATION_TYPE":"U","NORAD_CAT_ID":20262,"ELEMENT_SET_NO":999,"REV_AT_EPOCH":66548,"BSTAR":6.37553e-5,"MEAN_MOTION_DOT":2.45e-6,"MEAN_MOTION_DDOT":0},{"OBJECT_NAME":"DELTA 1 R/B","OBJECT_ID":"1989-089B","EPOCH":"2026-04-21T19:10:29.919360","MEAN_MOTION":14.50694797,"ECCENTRICITY":0.0068667,"INCLINATION":97.0668,"RA_OF_ASC_NODE":312.3694,"ARG_OF_PERICENTER":347.6225,"MEAN_ANOMALY":12.3284,"EPHEMERIS_TYPE":0,"CLASSIFICATION_TYPE":"U","NORAD_CAT_ID":20323,"ELEMENT_SET_NO":999,"REV_AT_EPOCH":90198,"BSTAR":4.5695e-5,"MEAN_MOTION_DOT":1.49e-6,"MEAN_MOTION_DDOT":0},{"OBJECT_NAME":"ARIANE 40 R/B","OBJECT_ID":"1990-005H","EPOCH":"2026-04-21T18:12:22.881024","MEAN_MOTION":14.39896764,"ECCENTRICITY":0.001134,"INCLINATION":98.3004,"RA_OF_ASC_NODE":171.1182,"ARG_OF_PERICENTER":77.9972,"MEAN_ANOMALY":282.2487,"EPHEMERIS_TYPE":0,"CLASSIFICATION_TYPE":"U","NORAD_CAT_ID":20443,"ELEMENT_SET_NO":999,"REV_AT_EPOCH":89900,"BSTAR":5.7138e-5,"MEAN_MOTION_DOT":1.38e-6,"MEAN_MOTION_DDOT":0},{"OBJECT_NAME":"DELTA 2 R/B(1)","OBJECT_ID":"1990-008B","EPOCH":"2026-04-21T19:05:37.883040","MEAN_MOTION":15.61511881,"ECCENTRICITY":0.0075331,"INCLINATION":35.602,"RA_OF_ASC_NODE":250.7224,"ARG_OF_PERICENTER":303.4232,"MEAN_ANOMALY":55.9318,"EPHEMERIS_TYPE":0,"CLASSIFICATION_TYPE":"U","NORAD_CAT_ID":20453,"ELEMENT_SET_NO":999,"REV_AT_EPOCH":93286,"BSTAR":0.00059086,"MEAN_MOTION_DOT":0.00060799,"MEAN_MOTION_DDOT":0},{"OBJECT_NAME":"COSMOS 2058","OBJECT_ID":"1990-010A","EPOCH":"2026-04-21T17:52:12.822240","MEAN_MOTION":15.11678349,"ECCENTRICITY":0.0009323,"INCLINATION":82.4702,"RA_OF_ASC_NODE":5.0093,"ARG_OF_PERICENTER":175.4952,"MEAN_ANOMALY":184.6364,"EPHEMERIS_TYPE":0,"CLASSIFICATION_TYPE":"U","NORAD_CAT_ID":20465,"ELEMENT_SET_NO":999,"REV_AT_EPOCH":94874,"BSTAR":0.00012281,"MEAN_MOTION_DOT":2.12e-5,"MEAN_MOTION_DDOT":0},{"OBJECT_NAME":"SL-14 R/B","OBJECT_ID":"1990-010B","EPOCH":"2026-04-21T13:58:40.471968","MEAN_MOTION":14.83608615,"ECCENTRICITY":0.0020484,"INCLINATION":82.5036,"RA_OF_ASC_NODE":227.095,"ARG_OF_PERICENTER":154.7348,"MEAN_ANOMALY":205.4873,"EPHEMERIS_TYPE":0,"CLASSIFICATION_TYPE":"U","NORAD_CAT_ID":20466,"ELEMENT_SET_NO":999,"REV_AT_EPOCH":93484,"BSTAR":3.6456e-5,"MEAN_MOTION_DOT":3.26e-6,"MEAN_MOTION_DDOT":0},{"OBJECT_NAME":"SL-14 R/B","OBJECT_ID":"1990-018B","EPOCH":"2026-04-21T15:23:30.697728","MEAN_MOTION":14.82182226,"ECCENTRICITY":0.0015054,"INCLINATION":82.5238,"RA_OF_ASC_NODE":182.9571,"ARG_OF_PERICENTER":314.1761,"MEAN_ANOMALY":45.8215,"EPHEMERIS_TYPE":0,"CLASSIFICATION_TYPE":"U","NORAD_CAT_ID":20511,"ELEMENT_SET_NO":999,"REV_AT_EPOCH":92894,"BSTAR":2.7442e-5,"MEAN_MOTION_DOT":2.42e-6,"MEAN_MOTION_DDOT":0},{"OBJECT_NAME":"HST","OBJECT_ID":"1990-037B","EPOCH":"2026-04-21T16:07:34.015872","MEAN_MOTION":15.3010116,"ECCENTRICITY":0.0001791,"INCLINATION":28.4735,"RA_OF_ASC_NODE":106.637,"ARG_OF_PERICENTER":231.5115,"MEAN_ANOMALY":128.532,"EPHEMERIS_TYPE":0,"CLASSIFICATION_TYPE":"U","NORAD_CAT_ID":20580,"ELEMENT_SET_NO":999,"REV_AT_EPOCH":77990,"BSTAR":0.0001483,"MEAN_MOTION_DOT":4.674e-5,"MEAN_MOTION_DDOT":0},{"OBJECT_NAME":"SL-16 R/B","OBJECT_ID":"1990-046B","EPOCH":"2026-04-21T17:57:44.759808","MEAN_MOTION":14.15014921,"ECCENTRICITY":0.0016235,"INCLINATION":70.9993,"RA_OF_ASC_NODE":207.479,"ARG_OF_PERICENTER":242.8232,"MEAN_ANOMALY":117.1236,"EPHEMERIS_TYPE":0,"CLASSIFICATION_TYPE":"U","NORAD_CAT_ID":20625,"ELEMENT_SET_NO":999,"REV_AT_EPOCH":85448,"BSTAR":-2.4759e-5,"MEAN_MOTION_DOT":-9.6e-7,"MEAN_MOTION_DDOT":0},{"OBJECT_NAME":"COSMOS 2084","OBJECT_ID":"1990-055A","EPOCH":"2026-04-21T13:20:13.008768","MEAN_MOTION":15.05885836,"ECCENTRICITY":0.0010299,"INCLINATION":62.7891,"RA_OF_ASC_NODE":189.3462,"ARG_OF_PERICENTER":207.4485,"MEAN_ANOMALY":152.6073,"EPHEMERIS_TYPE":0,"CLASSIFICATION_TYPE":"U","NORAD_CAT_ID":20663,"ELEMENT_SET_NO":999,"REV_AT_EPOCH":94277,"BSTAR":0.00010843,"MEAN_MOTION_DOT":1.382e-5,"MEAN_MOTION_DDOT":0},{"OBJECT_NAME":"SL-6 R/B(2)","OBJECT_ID":"1990-055D","EPOCH":"2026-04-21T20:43:38.584128","MEAN_MOTION":15.0377917,"ECCENTRICITY":0.0031798,"INCLINATION":62.7804,"RA_OF_ASC_NODE":107.0065,"ARG_OF_PERICENTER":356.1534,"MEAN_ANOMALY":3.9316,"EPHEMERIS_TYPE":0,"CLASSIFICATION_TYPE":"U","NORAD_CAT_ID":20666,"ELEMENT_SET_NO":999,"REV_AT_EPOCH":94468,"BSTAR":0.00012022,"MEAN_MOTION_DOT":1.472e-5,"MEAN_MOTION_DDOT":0},{"OBJECT_NAME":"SL-8 R/B","OBJECT_ID":"1990-078B","EPOCH":"2026-04-21T18:22:17.190336","MEAN_MOTION":14.90229119,"ECCENTRICITY":0.0356466,"INCLINATION":82.9056,"RA_OF_ASC_NODE":212.5352,"ARG_OF_PERICENTER":228.4703,"MEAN_ANOMALY":128.5436,"EPHEMERIS_TYPE":0,"CLASSIFICATION_TYPE":"U","NORAD_CAT_ID":20775,"ELEMENT_SET_NO":999,"REV_AT_EPOCH":81571,"BSTAR":0.00045815,"MEAN_MOTION_DOT":0.00015594,"MEAN_MOTION_DDOT":0}]
